CCSDS_OMM_VERS = 2.0
CREATION_DATE  = 
ORIGINATOR     = 

OBJECT_NAME    = STARLINK-36251
OBJECT_ID      = 2026-042AA
CENTER_NAME    = EARTH
REF_FRAME      = TEME
TIME_SYSTEM    = UTC
MEAN_ELEMENT_THEORY = SGP/SGP4

EPOCH          = 2026-04-02T04:00:03.000096
MEAN_MOTION    = 15.75281906
ECCENTRICITY   = .0001242
INCLINATION    = 53.1595
RA_OF_ASC_NODE = 76.9481
ARG_OF_PERICENTER = 88.1534
MEAN_ANOMALY   = 85.1572

EPHEMERIS_TYPE = 0
CLASSIFICATION_TYPE = U
NORAD_CAT_ID   = 68093
ELEMENT_SET_NO = 999
REV_AT_EPOCH   = 581
BSTAR          = -.78527E-3
MEAN_MOTION_DOT = -.119551E-2
MEAN_MOTION_DDOT = 0

CCSDS_OMM_VERS = 2.0
CREATION_DATE  = 
ORIGINATOR     = 

OBJECT_NAME    = STARLINK-36787
OBJECT_ID      = 2026-042AB
CENTER_NAME    = EARTH
REF_FRAME      = TEME
TIME_SYSTEM    = UTC
MEAN_ELEMENT_THEORY = SGP/SGP4

EPOCH          = 2026-04-02T04:00:03.000096
MEAN_MOTION    = 15.75287754
ECCENTRICITY   = .0001182
INCLINATION    = 53.1584
RA_OF_ASC_NODE = 77.4766
ARG_OF_PERICENTER = 89.2553
MEAN_ANOMALY   = 186.5313

EPHEMERIS_TYPE = 0
CLASSIFICATION_TYPE = U
NORAD_CAT_ID   = 68094
ELEMENT_SET_NO = 999
REV_AT_EPOCH   = 581
BSTAR          = -.78149E-3
MEAN_MOTION_DOT = -.119015E-2
MEAN_MOTION_DDOT = 0

CCSDS_OMM_VERS = 2.0
CREATION_DATE  = 
ORIGINATOR     = 

OBJECT_NAME    = STARLINK-36790
OBJECT_ID      = 2026-042AC
CENTER_NAME    = EARTH
REF_FRAME      = TEME
TIME_SYSTEM    = UTC
MEAN_ELEMENT_THEORY = SGP/SGP4

EPOCH          = 2026-04-02T05:26:39.965280
MEAN_MOTION    = 15.75314267
ECCENTRICITY   = .0001372
INCLINATION    = 53.1589
RA_OF_ASC_NODE = 76.9655
ARG_OF_PERICENTER = 100.5847
MEAN_ANOMALY   = 259.5328

EPHEMERIS_TYPE = 0
CLASSIFICATION_TYPE = U
NORAD_CAT_ID   = 68095
ELEMENT_SET_NO = 999
REV_AT_EPOCH   = 579
BSTAR          = .24346E-2
MEAN_MOTION_DOT = .391654E-2
MEAN_MOTION_DDOT = 0

CCSDS_OMM_VERS = 2.0
CREATION_DATE  = 
ORIGINATOR     = 

OBJECT_NAME    = STARLINK-36328
OBJECT_ID      = 2026-042AD
CENTER_NAME    = EARTH
REF_FRAME      = TEME
TIME_SYSTEM    = UTC
MEAN_ELEMENT_THEORY = SGP/SGP4

EPOCH          = 2026-04-02T04:00:03.000096
MEAN_MOTION    = 15.75283820
ECCENTRICITY   = .0001129
INCLINATION    = 53.1592
RA_OF_ASC_NODE = 77.1052
ARG_OF_PERICENTER = 98.8539
MEAN_ANOMALY   = 357.2096

EPHEMERIS_TYPE = 0
CLASSIFICATION_TYPE = U
NORAD_CAT_ID   = 68096
ELEMENT_SET_NO = 999
REV_AT_EPOCH   = 581
BSTAR          = -.85294E-3
MEAN_MOTION_DOT = -.129654E-2
MEAN_MOTION_DDOT = 0

CCSDS_OMM_VERS = 2.0
CREATION_DATE  = 
ORIGINATOR     = 

OBJECT_NAME    = STARLINK-36853
OBJECT_ID      = 2026-042AE
CENTER_NAME    = EARTH
REF_FRAME      = TEME
TIME_SYSTEM    = UTC
MEAN_ELEMENT_THEORY = SGP/SGP4

EPOCH          = 2026-04-02T04:00:03.000096
MEAN_MOTION    = 15.75278514
ECCENTRICITY   = .0001195
INCLINATION    = 53.1589
RA_OF_ASC_NODE = 77.0528
ARG_OF_PERICENTER = 91.9895
MEAN_ANOMALY   = 29.8244

EPHEMERIS_TYPE = 0
CLASSIFICATION_TYPE = U
NORAD_CAT_ID   = 68097
ELEMENT_SET_NO = 999
REV_AT_EPOCH   = 582
BSTAR          = -.77021E-3
MEAN_MOTION_DOT = -.117283E-2
MEAN_MOTION_DDOT = 0

CCSDS_OMM_VERS = 2.0
CREATION_DATE  = 
ORIGINATOR     = 

OBJECT_NAME    = GLOBAL-34
OBJECT_ID      = 2026-043A
CENTER_NAME    = EARTH
REF_FRAME      = TEME
TIME_SYSTEM    = UTC
MEAN_ELEMENT_THEORY = SGP/SGP4

EPOCH          = 2026-04-01T22:46:35.075712
MEAN_MOTION    = 15.31990734
ECCENTRICITY   = .0003584
INCLINATION    = 42.0209
RA_OF_ASC_NODE = 301.2069
ARG_OF_PERICENTER = 95.7602
MEAN_ANOMALY   = 264.3644

EPHEMERIS_TYPE = 0
CLASSIFICATION_TYPE = U
NORAD_CAT_ID   = 68098
ELEMENT_SET_NO = 999
REV_AT_EPOCH   = 413
BSTAR          = .4333E-3
MEAN_MOTION_DOT = .13447E-3
MEAN_MOTION_DDOT = 0

CCSDS_OMM_VERS = 2.0
CREATION_DATE  = 
ORIGINATOR     = 

OBJECT_NAME    = STARLINK-37022
OBJECT_ID      = 2026-044A
CENTER_NAME    = EARTH
REF_FRAME      = TEME
TIME_SYSTEM    = UTC
MEAN_ELEMENT_THEORY = SGP/SGP4

EPOCH          = 2026-04-02T04:00:03.000096
MEAN_MOTION    = 15.55167946
ECCENTRICITY   = .0002061
INCLINATION    = 97.2856
RA_OF_ASC_NODE = 53.3853
ARG_OF_PERICENTER = 104.7778
MEAN_ANOMALY   = 145.0018

EPHEMERIS_TYPE = 0
CLASSIFICATION_TYPE = U
NORAD_CAT_ID   = 68101
ELEMENT_SET_NO = 999
REV_AT_EPOCH   = 517
BSTAR          = -.31137E-1
MEAN_MOTION_DOT = -.1858232E-1
MEAN_MOTION_DDOT = 0

CCSDS_OMM_VERS = 2.0
CREATION_DATE  = 
ORIGINATOR     = 

OBJECT_NAME    = STARLINK-37046
OBJECT_ID      = 2026-044B
CENTER_NAME    = EARTH
REF_FRAME      = TEME
TIME_SYSTEM    = UTC
MEAN_ELEMENT_THEORY = SGP/SGP4

EPOCH          = 2026-04-02T04:00:03.000096
MEAN_MOTION    = 15.55712983
ECCENTRICITY   = .0001967
INCLINATION    = 97.2855
RA_OF_ASC_NODE = 53.3919
ARG_OF_PERICENTER = 104.2830
MEAN_ANOMALY   = 160.6610

EPHEMERIS_TYPE = 0
CLASSIFICATION_TYPE = U
NORAD_CAT_ID   = 68102
ELEMENT_SET_NO = 999
REV_AT_EPOCH   = 517
BSTAR          = -.30568E-1
MEAN_MOTION_DOT = -.1861052E-1
MEAN_MOTION_DDOT = 0

CCSDS_OMM_VERS = 2.0
CREATION_DATE  = 
ORIGINATOR     = 

OBJECT_NAME    = STARLINK-37018
OBJECT_ID      = 2026-044C
CENTER_NAME    = EARTH
REF_FRAME      = TEME
TIME_SYSTEM    = UTC
MEAN_ELEMENT_THEORY = SGP/SGP4

EPOCH          = 2026-04-02T04:00:03.000096
MEAN_MOTION    = 15.55966106
ECCENTRICITY   = .000188
INCLINATION    = 97.2855
RA_OF_ASC_NODE = 53.3973
ARG_OF_PERICENTER = 107.1811
MEAN_ANOMALY   = 169.9801

EPHEMERIS_TYPE = 0
CLASSIFICATION_TYPE = U
NORAD_CAT_ID   = 68103
ELEMENT_SET_NO = 999
REV_AT_EPOCH   = 512
BSTAR          = -.30123E-1
MEAN_MOTION_DOT = -.1852321E-1
MEAN_MOTION_DDOT = 0

CCSDS_OMM_VERS = 2.0
CREATION_DATE  = 
ORIGINATOR     = 

OBJECT_NAME    = STARLINK-37041
OBJECT_ID      = 2026-044D
CENTER_NAME    = EARTH
REF_FRAME      = TEME
TIME_SYSTEM    = UTC
MEAN_ELEMENT_THEORY = SGP/SGP4

EPOCH          = 2026-04-02T04:00:03.000096
MEAN_MOTION    = 15.56815176
ECCENTRICITY   = .0001694
INCLINATION    = 97.2855
RA_OF_ASC_NODE = 53.4060
ARG_OF_PERICENTER = 108.5551
MEAN_ANOMALY   = 188.2087

EPHEMERIS_TYPE = 0
CLASSIFICATION_TYPE = U
NORAD_CAT_ID   = 68104
ELEMENT_SET_NO = 999
REV_AT_EPOCH   = 512
BSTAR          = -.2928E-1
MEAN_MOTION_DOT = -.1857582E-1
MEAN_MOTION_DDOT = 0

CCSDS_OMM_VERS = 2.0
CREATION_DATE  = 
ORIGINATOR     = 

OBJECT_NAME    = STARLINK-37021
OBJECT_ID      = 2026-044E
CENTER_NAME    = EARTH
REF_FRAME      = TEME
TIME_SYSTEM    = UTC
MEAN_ELEMENT_THEORY = SGP/SGP4

EPOCH          = 2026-04-02T04:00:03.000096
MEAN_MOTION    = 15.54908728
ECCENTRICITY   = .0001928
INCLINATION    = 97.2850
RA_OF_ASC_NODE = 53.3952
ARG_OF_PERICENTER = 103.4796
MEAN_ANOMALY   = 169.8363

EPHEMERIS_TYPE = 0
CLASSIFICATION_TYPE = U
NORAD_CAT_ID   = 68105
ELEMENT_SET_NO = 999
REV_AT_EPOCH   = 512
BSTAR          = -.31424E-1
MEAN_MOTION_DOT = -.1857548E-1
MEAN_MOTION_DDOT = 0

CCSDS_OMM_VERS = 2.0
CREATION_DATE  = 
ORIGINATOR     = 

OBJECT_NAME    = STARLINK-37024
OBJECT_ID      = 2026-044F
CENTER_NAME    = EARTH
REF_FRAME      = TEME
TIME_SYSTEM    = UTC
MEAN_ELEMENT_THEORY = SGP/SGP4

EPOCH          = 2026-04-02T04:00:03.000096
MEAN_MOTION    = 15.56966251
ECCENTRICITY   = .0001792
INCLINATION    = 97.2854
RA_OF_ASC_NODE = 53.4123
ARG_OF_PERICENTER = 109.0806
MEAN_ANOMALY   = 204.1053

EPHEMERIS_TYPE = 0
CLASSIFICATION_TYPE = U
NORAD_CAT_ID   = 68106
ELEMENT_SET_NO = 999
REV_AT_EPOCH   = 512
BSTAR          = -.28911E-1
MEAN_MOTION_DOT = -.1846089E-1
MEAN_MOTION_DDOT = 0

