STARLINK-36251          
1 68093U 26042AA  26092.16670139 -.00119551  00000+0 -78527-3 0  9997
2 68093  53.1595  76.9481 0001242  88.1534  85.1572 15.75281906  5815
STARLINK-36787          
1 68094U 26042AB  26092.16670139 -.00119015  00000+0 -78149-3 0  9993
2 68094  53.1584  77.4766 0001182  89.2553 186.5313 15.75287754  5818
STARLINK-36790          
1 68095U 26042AC  26092.22685145  .00391654  00000+0  24346-2 0  9992
2 68095  53.1589  76.9655 0001372 100.5847 259.5328 15.75314267  5793
STARLINK-36328          
1 68096U 26042AD  26092.16670139 -.00129654  00000+0 -85294-3 0  9994
2 68096  53.1592  77.1052 0001129  98.8539 357.2096 15.75283820  5810
STARLINK-36853          
1 68097U 26042AE  26092.16670139 -.00117283  00000+0 -77021-3 0  9999
2 68097  53.1589  77.0528 0001195  91.9895  29.8244 15.75278514  5828
GLOBAL-34               
1 68098U 26043A   26091.94901708  .00013447  00000+0  43330-3 0  9996
2 68098  42.0209 301.2069 0003584  95.7602 264.3644 15.31990734  4139
STARLINK-37022          
1 68101U 26044A   26092.16670139 -.01858232  00000+0 -31137-1 0  9990
2 68101  97.2856  53.3853 0002061 104.7778 145.0018 15.55167946  5176
STARLINK-37046          
1 68102U 26044B   26092.16670139 -.01861052  00000+0 -30568-1 0  9992
2 68102  97.2855  53.3919 0001967 104.2830 160.6610 15.55712983  5175
STARLINK-37018          
1 68103U 26044C   26092.16670139 -.01852321  00000+0 -30123-1 0  9999
2 68103  97.2855  53.3973 0001880 107.1811 169.9801 15.55966106  5128
STARLINK-37041          
1 68104U 26044D   26092.16670139 -.01857582  00000+0 -29280-1 0  9996
2 68104  97.2855  53.4060 0001694 108.5551 188.2087 15.56815176  5127
STARLINK-37021          
1 68105U 26044E   26092.16670139 -.01857548  00000+0 -31424-1 0  9992
2 68105  97.2850  53.3952 0001928 103.4796 169.8363 15.54908728  5123
STARLINK-37024          
1 68106U 26044F   26092.16670139 -.01846089  00000+0 -28911-1 0  9998
2 68106  97.2854  53.4123 0001792 109.0806 204.1053 15.56966251  5128
